EYESAT A (AO-27)        
1 22825U 93061C   26200.16474111  .00000029  00000+0  27888-4 0  9990
2 22825  98.6864 267.5640 0008539  14.7402 345.4028 14.30949715711575
ITAMSAT (IO-26)         
1 22826U 93061D   26200.41421769  .00000024  00000+0  25972-4 0  9997
2 22826  98.6814 267.7342 0008700 356.7861   3.3264 14.31377441711923
RADIO ROSTO (RS15)      
1 23439U 94085A   26200.57618643 -.00000035  00000+0  21514-3 0  9991
2 23439  64.8143 250.8352 0157088 357.9036   2.1213 11.27583575299559
JAS-2 (FO-29)           
1 24278U 96046B   26200.47184427 -.00000043  00000+0 -81589-5 0  9999
2 24278  98.5218  44.9182 0350156  12.8574 348.1218 13.53275816477537
FORTE                   
1 24920U 97047A   26200.45746505  .00000047  00000+0  42099-4 0  9998
2 24920  69.9545 301.1300 0024248 238.1961 121.6800 14.27956461503297
TECHSAT 1B (GO-32)      
1 25397U 98043D   26200.44634488  .00000001  00000+0  20729-4 0  9995
2 25397  99.0088 194.0215 0002289 108.4800 251.6627 14.24433824455925
ISS (ZARYA)             
1 25544U 98067A   26200.25015283  .00004118  00000+0  82726-4 0  9998
2 25544  51.6315 141.4207 0006817 313.5383  46.5039 15.49048208576725
IMAGE                   
1 26113U 00017A   26191.39817865 -.00000042  00000+0  00000+0 0  9992
2 26113  94.2468 315.6762 7416054 285.1805   9.7435  1.68666826161896
CLUSTER II-FM7 (SAMBA)  
1 26410U 00041A   26201.60180372  .00010308 -30415-5  00000+0 0  9996
2 26410 149.8020  56.9135 9091713 274.4938 359.4450  0.44850614 20469
CLUSTER II-FM8 (TANGO)  
1 26464U 00045B   26199.95353872  .00014907 -89767-5  00000+0 0  9993
2 26464 150.0091  57.8386 9095648 275.2395   2.0585  0.44423357 20454
ODIN                    
1 26702U 01007A   26200.33231481  .00298908  35583-4  91389-3 0  9997
2 26702  97.3680 243.6758 0004984 151.8712 208.2832 15.91901794394486
OMNI-M1                 
1 26857U 01026A   26196.51065422  .00000004  00000+0  00000+0 0  9998
2 26857  44.8240 238.7352 0013528  57.8922 302.2996  3.92402085206680
PCSAT (NO-44)           
1 26931U 01043C   26200.28807483  .00000025  00000+0  40157-4 0  9996
2 26931  67.0498 161.2434 0005870 266.8644  93.1786 14.31965883295046
PROBA-1                 
1 26958U 01049B   26200.59324043  .00000459  00000+0  33792-4 0  9999
2 26958  97.9602 210.2605 0055288  15.0472 345.2383 15.07622166348502
SAUDISAT 1C (SO-50)     
1 27607U 02058C   26200.52213065  .00000353  00000+0  59687-4 0  9990
2 27607  64.5520  28.9362 0074394 256.4806 102.8004 14.83102948269253
CORIOLIS                
1 27640U 03001A   26200.47008715  .00000031  00000+0  35071-4 0  9998
2 27640  98.7136 206.8630 0015083 117.8062 242.4645 14.19952540218808
CUTE-1 (CO-55)          
1 27844U 03031E   26200.49154011  .00000118  00000+0  70118-4 0  9997
2 27844  98.6745 208.6450 0010868  91.6414 268.6010 14.24353085196272
CUBESAT XI-IV (CO-57)   
1 27848U 03031J   26200.49623929  .00000096  00000+0  61252-4 0  9994
2 27848  98.6776 208.3362 0010654 108.0973 252.1367 14.23635874195972
MOZHAETS 4 (RS22)       
1 27939U 03042A   26200.60913804 -.00000037  00000+0  26554-5 0  9997
2 27939  98.3478  25.8857 0011576 159.4525 291.6346 14.73516906220329
